{
    "links": {
        "self": "http://www.neowsapp.com/rest/v1/neo/54053843?api_key=iIulBulltgU6a56xZRHN4H3l9WmuAYTsLGpBGhQ2"
    },
    "id": "54053843",
    "neo_reference_id": "54053843",
    "name": "(2020 RO2)",
    "designation": "2020 RO2",
    "nasa_jpl_url": "http://ssd.jpl.nasa.gov/sbdb.cgi?sstr=54053843",
    "absolute_magnitude_h": 27.582,
    "estimated_diameter": {
        "kilometers": {
            "estimated_diameter_min": 0.0080938467,
            "estimated_diameter_max": 0.0180983915
        },
        "meters": {
            "estimated_diameter_min": 8.09384674,
            "estimated_diameter_max": 18.0983915101
        },
        "miles": {
            "estimated_diameter_min": 0.0050292816,
            "estimated_diameter_max": 0.0112458156
        },
        "feet": {
            "estimated_diameter_min": 26.5546161385,
            "estimated_diameter_max": 59.3779268021
        }
    },
    "is_potentially_hazardous_asteroid": false,
    "close_approach_data": [
        {
            "close_approach_date": "2015-11-08",
            "close_approach_date_full": "2015-Nov-08 05:44",
            "epoch_date_close_approach": 1446961440000,
            "relative_velocity": {
                "kilometers_per_second": "12.6426334513",
                "kilometers_per_hour": "45513.4804247956",
                "miles_per_hour": "28280.3067672848"
            },
            "miss_distance": {
                "astronomical": "0.0571588985",
                "lunar": "22.2348115165",
                "kilometers": "8550849.467146195",
                "miles": "5313251.480139691"
            },
            "orbiting_body": "Mars"
        },
        {
            "close_approach_date": "2018-03-31",
            "close_approach_date_full": "2018-Mar-31 20:48",
            "epoch_date_close_approach": 1522529280000,
            "relative_velocity": {
                "kilometers_per_second": "19.130343564",
                "kilometers_per_hour": "68869.2368304954",
                "miles_per_hour": "42792.6655183709"
            },
            "miss_distance": {
                "astronomical": "0.1369837085",
                "lunar": "53.2866626065",
                "kilometers": "20492471.016300895",
                "miles": "12733431.032486551"
            },
            "orbiting_body": "Earth"
        },
        {
            "close_approach_date": "2020-09-08",
            "close_approach_date_full": "2020-Sep-08 06:13",
            "epoch_date_close_approach": 1599545580000,
            "relative_velocity": {
                "kilometers_per_second": "15.7567852003",
                "kilometers_per_hour": "56724.426721084",
                "miles_per_hour": "35246.3528145535"
            },
            "miss_distance": {
                "astronomical": "0.0069953257",
                "lunar": "2.7211816973",
                "kilometers": "1046485.824676259",
                "miles": "650256.1386760142"
            },
            "orbiting_body": "Earth"
        },
        {
            "close_approach_date": "2020-09-08",
            "close_approach_date_full": "2020-Sep-08 08:57",
            "epoch_date_close_approach": 1599555420000,
            "relative_velocity": {
                "kilometers_per_second": "16.5777724608",
                "kilometers_per_hour": "59679.9808590416",
                "miles_per_hour": "37082.819217664"
            },
            "miss_distance": {
                "astronomical": "0.009307983",
                "lunar": "3.620805387",
                "kilometers": "1392454.43079621",
                "miles": "865231.061999298"
            },
            "orbiting_body": "Moon"
        }
    ],
    "orbital_data": {
        "orbit_id": "3",
        "orbit_determination_date": "2020-10-06 06:30:15",
        "first_observation_date": "2020-09-09",
        "last_observation_date": "2020-09-15",
        "data_arc_in_days": 6,
        "observations_used": 20,
        "orbit_uncertainty": "8",
        "minimum_orbit_intersection": ".000722393",
        "jupiter_tisserand_invariant": "4.026",
        "epoch_osculation": "2459106.5",
        "eccentricity": ".5534164577881495",
        "semi_major_axis": "1.688317739747817",
        "inclination": "6.080259990128931",
        "ascending_node_longitude": "345.6534125459217",
        "orbital_period": "801.2715123827617",
        "perihelion_distance": ".7539749165956854",
        "perihelion_argument": "286.6780862803266",
        "aphelion_distance": "2.622660562899949",
        "perihelion_time": "2459052.762467222920",
        "mean_anomaly": "24.14351627480248",
        "mean_motion": ".4492859092537294",
        "equinox": "J2000",
        "orbit_class": {
            "orbit_class_type": "APO",
            "orbit_class_description": "Near-Earth asteroid orbits which cross the Earth’s orbit similar to that of 1862 Apollo",
            "orbit_class_range": "a (semi-major axis) > 1.0 AU; q (perihelion) < 1.017 AU"
        }
    },
    "is_sentry_object": false
}